IRIDIUM 33              
1 24946U 97051C   21357.92136097  .00000191  00000+0  61855-4 0  9991
2 24946  86.3868 315.7635 0005764 263.4003  96.6536 14.33768076270533
IRIDIUM 33 DEB          
1 33772U 97051K   21357.85805105  .00529406  00000+0  10649-1 0  9990
2 33772  86.3852 243.1720 0004939  27.1285 333.0228 15.44617615685757
IRIDIUM 33 DEB          
1 33773U 97051L   21357.93058392  .00000538  00000+0  16902-3 0  9998
2 33773  86.4014 311.8943 0009367 248.1625 111.8577 14.38711196674750
IRIDIUM 33 DEB          
1 33775U 97051N   21357.94206542  .00000686  00000+0  23174-3 0  9996
2 33775  86.3667 304.3509 0011329 248.7504 178.2675 14.35517114673063
IRIDIUM 33 DEB          
1 33776U 97051P   21357.88800716  .00000458  00000+0  15608-3 0  9993
2 33776  86.4046 327.0028 0012482 261.8081 155.7819 14.34305628672761
IRIDIUM 33 DEB          
1 33777U 97051Q   21357.87745894  .00000883  00000+0  26018-3 0  9997
2 33777  86.3836 296.8714 0012574  53.3197 306.9157 14.42554384675590
IRIDIUM 33 DEB          
1 33849U 97051S   21357.96227706  .00011259  00000+0  24745-2 0  9997
2 33849  86.1018 165.9261 0081427 319.1513  40.3608 14.55375329672727
IRIDIUM 33 DEB          
1 33850U 97051T   21357.91330868  .00000835  00000+0  27941-3 0  9998
2 33850  86.3441 289.5017 0009264 247.7166 183.7753 14.36219415673087
IRIDIUM 33 DEB          
1 33853U 97051W   21357.78981571  .00000753  00000+0  46574-3 0  9991
2 33853  86.0014 260.1351 0237135 331.5696  86.8800 13.91292183651400
IRIDIUM 33 DEB          
1 33854U 97051X   21357.89333689  .00007440  00000+0  12573-2 0  9996
2 33854  86.2268 155.7624 0008070 330.4928 143.9609 14.69267677682969
IRIDIUM 33 DEB          
1 33855U 97051Y   21358.09722980  .00149735  00000+0  12350-1 0  9992
2 33855  86.2116 293.9235 0035292 123.9309 236.5286 14.97798897672164
IRIDIUM 33 DEB          
1 33859U 97051AC  21358.07162757  .00002513  00000+0  73077-3 0  9991
2 33859  86.3406 287.1870 0047992 231.8570 127.8301 14.43262952673452
IRIDIUM 33 DEB          
1 33860U 97051AD  21357.88691692  .00001846  00000+0  51401-3 0  9991
2 33860  86.3916 293.8920 0013878 153.2508 272.2388 14.45860656676713
IRIDIUM 33 DEB          
1 33862U 97051AF  21358.08410591  .00002394  00000+0  63209-3 0  9991
2 33862  86.4136 301.8496 0060449 285.6537 203.1269 14.47466556677395
IRIDIUM 33 DEB          
1 33864U 97051AH  21357.63660132  .00003655  00000+0  88723-3 0  9990
2 33864  86.2776 222.4154 0007495  92.6748 319.2676 14.52664036677802
IRIDIUM 33 DEB          
1 33865U 97051AJ  21357.69797557  .00010173  00000+0  16245-2 0  9991
2 33865  86.3456 236.6409 0035044 232.3483 180.3837 14.71372531681403
IRIDIUM 33 DEB          
1 33866U 97051AK  21357.50476066  .00001480  00000+0  69528-3 0  9995
2 33866  86.3038 339.9332 0134036  91.0495  28.5084 14.14758171662429
IRIDIUM 33 DEB          
1 33867U 97051AL  21357.82375740  .00003266  00000+0  70211-3 0  9993
2 33867  86.4175 278.5300 0027857  25.1974 335.0587 14.58051225681045
IRIDIUM 33 DEB          
1 33869U 97051AN  21357.94211328  .00012483  00000+0  33683-2 0  9991
2 33869  86.3521 314.8286 0072578 326.1266  33.5311 14.46225973671567
IRIDIUM 33 DEB          
1 33870U 97051AP  21357.91089992  .00001001  00000+0  33723-3 0  9990
2 33870  86.3787 313.0299 0021419 277.2037 135.2089 14.35996245672746
IRIDIUM 33 DEB          
1 33873U 97051AS  21357.84337794  .00003972  00000+0  81624-3 0  9993
2 33873  86.3677 256.8939 0022941  21.5932 338.6241 14.60242392679759
IRIDIUM 33 DEB          
1 33874U 97051AT  21357.88929907  .00003409  00000+0  11600-2 0  9992
2 33874  86.2895 289.7950 0068228 105.1169 320.9179 14.34985897669071
IRIDIUM 33 DEB          
1 33875U 97051AU  21357.75525212  .00006015  00000+0  91885-3 0  9990
2 33875  86.4082 242.2478 0029981 123.5118 303.4806 14.73354492685561
IRIDIUM 33 DEB          
1 33876U 97051AV  21358.06681090  .00047467  00000+0  39720-2 0  9998
2 33876  86.1888 118.3443 0007337  93.7336 266.4734 14.98228950686373
IRIDIUM 33 DEB          
1 33878U 97051AX  21358.11802055  .00009794  00000+0  24727-2 0  9994
2 33878  86.3063 292.1252 0109513 330.5529  28.9531 14.47368551671002
IRIDIUM 33 DEB          
1 33879U 97051AY  21357.62384805  .00015106  00000+0  19296-2 0  9997
2 33879  86.3577 222.5932 0040326  55.4960 305.0058 14.80751529432931
IRIDIUM 33 DEB          
1 33881U 97051BA  21357.97268483  .00003175  00000+0  12419-2 0  9994
2 33881  86.3847 358.1364 0087628 229.0902 192.5725 14.27193614666722
IRIDIUM 33 DEB          
1 33884U 97051BD  21357.84276876  .00002946  00000+0  78538-3 0  9998
2 33884  86.3798 283.8582 0012395 214.1724 203.4992 14.48137151677213
IRIDIUM 33 DEB          
1 33886U 97051BF  21357.91623816  .00000302  00000+0  10201-3 0  9995
2 33886  86.3834 315.6902 0012625 304.3553 107.8721 14.33573039672668
IRIDIUM 33 DEB          
1 33887U 97051BG  21357.76841862  .00000276  00000+0  89839-4 0  9996
2 33887  86.3058 266.5800 0005004 314.3475  98.0484 14.35187129673565
IRIDIUM 33 DEB          
1 33888U 97051BH  21357.82197952  .00005799  00000+0  16540-2 0  9990
2 33888  86.3276 282.5752 0038006 238.4776 121.2711 14.44657038672865
IRIDIUM 33 DEB          
1 33950U 97051BK  21357.95327716  .00011463  00000+0  20002-2 0  9990
2 33950  86.3771 263.4919 0012901 225.3963 134.6199 14.67838412680350
IRIDIUM 33 DEB          
1 33952U 97051BM  21357.68274429  .00005935  00000+0  12408-2 0  9992
2 33952  86.3511 252.5874 0014980 356.6302   3.4804 14.59632500679431
IRIDIUM 33 DEB          
1 33953U 97051BN  21357.91745753  .00001493  00000+0  46915-3 0  9998
2 33953  86.3921 312.2307 0021346 236.3265 182.8693 14.39788342673568
IRIDIUM 33 DEB          
1 33954U 97051BP  21357.84135811  .00011150  00000+0  20629-2 0  9993
2 33954  86.3733 274.1570 0008499 261.8109 162.6086 14.65263064678769
IRIDIUM 33 DEB          
1 33955U 97051BQ  21357.79729341  .00021066  00000+0  28314-2 0  9991
2 33955  86.3516 256.0852 0023243 218.3026 141.6545 14.78989626680000
IRIDIUM 33 DEB          
1 33956U 97051BR  21358.07113635  .00034523  00000+0  36302-2 0  9995
2 33956  86.4102 267.9061 0032779 353.0203  71.9775 14.88872200682826
IRIDIUM 33 DEB          
1 33959U 97051BU  21357.88376591  .00002238  00000+0  71654-3 0  9996
2 33959  86.3648 324.9832 0084932  73.1921 287.8571 14.37101495669303
IRIDIUM 33 DEB          
1 33960U 97051BV  21357.67368760  .00001605  00000+0  42126-3 0  9993
2 33960  86.2743 224.5483 0007517 323.3358 100.5058 14.48650113677011
IRIDIUM 33 DEB          
1 33961U 97051BW  21357.85858309  .00012314  00000+0  19668-2 0  9990
2 33961  86.2706 195.3618 0019904 262.0575  97.8382 14.71653172681230
IRIDIUM 33 DEB          
1 33962U 97051BX  21357.84981116  .00009336  00000+0  16264-2 0  9992
2 33962  86.3526 243.7182 0030556 274.1401  85.6321 14.67650571680887
IRIDIUM 33 DEB          
1 33965U 97051CA  21357.54498575  .00005256  00000+0  12373-2 0  9998
2 33965  86.3676 272.7966 0014092  32.2672 327.9394 14.54132374677743
IRIDIUM 33 DEB          
1 33966U 97051CB  21357.88610763  .00000811  00000+0  24445-3 0  9997
2 33966  86.3951 302.6631 0007882 355.1144  62.1456 14.41336236675106
IRIDIUM 33 DEB          
1 33967U 97051CC  21357.75552141  .00010012  00000+0  16463-2 0  9993
2 33967  86.3783 258.7176 0031434 235.6365 124.1877 14.70172497680945
IRIDIUM 33 DEB          
1 34071U 97051CE  21357.82331458  .00000862  00000+0  26630-3 0  9994
2 34071  86.3492 281.7395 0005837 222.1228 137.9523 14.40230981674702
IRIDIUM 33 DEB          
1 34076U 97051CK  21357.81203885  .00021862  00000+0  20740-2 0  9998
2 34076  86.3310 175.1421 0032399 310.5679 112.9208 14.93041634688203
IRIDIUM 33 DEB          
1 34077U 97051CL  21357.90067685  .00001842  00000+0  56445-3 0  9993
2 34077  86.3960 313.6083 0016119 180.7363 231.9597 14.41166609673263
IRIDIUM 33 DEB          
1 34079U 97051CN  21357.87323576  .00002704  00000+0  68915-3 0  9998
2 34079  86.3890 284.0330 0008703 223.1259 202.9912 14.50276879678006
IRIDIUM 33 DEB          
1 34082U 97051CR  21357.90540692  .00015576  00000+0  31728-2 0  9998
2 34082  86.3621 329.8736 0127995  70.4838 291.0141 14.55818048670146
IRIDIUM 33 DEB          
1 34086U 97051CV  21357.83788368  .00004055  00000+0  11321-2 0  9995
2 34086  86.3830 308.1300 0016337 204.1315 185.1729 14.45978246674035
IRIDIUM 33 DEB          
1 34088U 97051CX  21357.88221598  .00002299  00000+0  62976-3 0  9990
2 34088  86.4018 303.2262 0013012 127.8721 284.7778 14.46752542675770
IRIDIUM 33 DEB          
1 34090U 97051CZ  21357.61547251  .00028552  00000+0  23076-2 0  9998
2 34090  86.4174 221.7798 0007323 330.4057  29.6759 14.99657586688618
IRIDIUM 33 DEB          
1 34091U 97051DA  21357.88562527  .00001475  00000+0  51724-3 0  9998
2 34091  86.3690 332.6090 0072780 117.4385 243.4237 14.32942167668876
IRIDIUM 33 DEB          
1 34093U 97051DC  21358.05640028  .00163184  00000+0  42799-2 0  9990
2 34093  86.2842 112.8704 0006397 309.1066  50.9617 15.38009043694576
IRIDIUM 33 DEB          
1 34095U 97051DE  21357.82923013  .00015193  00000+0  28228-2 0  9991
2 34095  86.3806 280.4072 0062611   1.5663 358.5733 14.63810126677550
IRIDIUM 33 DEB          
1 34097U 97051DG  21357.83183013  .00001320  00000+0  57285-3 0  9995
2 34097  86.2059 271.6796 0100829 339.5022  20.2131 14.20819157664527
IRIDIUM 33 DEB          
1 34098U 97051DH  21357.72444759  .00018246  00000+0  20949-2 0  9992
2 34098  86.1292  86.1715 0016137  86.6502  31.2510 14.85660078685216
IRIDIUM 33 DEB          
1 34099U 97051DJ  21357.75862163  .00009312  00000+0  17139-2 0  9990
2 34099  86.3630 258.1829 0011868 254.7003 158.2137 14.65466031679648
IRIDIUM 33 DEB          
1 34101U 97051DL  21358.01248640  .00006047  00000+0  17138-2 0  9993
2 34101  86.3743 344.1897 0101631 141.5696 219.2801 14.42359458668291
